ONEWEB-0136             
1 47282U 20100AA  24173.41372456  .00000317  00000+0  84658-3 0  9999
2 47282  87.8947 135.1528 0002134  68.5825 291.5531 13.12444553169461
ONEWEB-0137             
1 47283U 20100AB  24173.37154651 -.00000171  00000+0 -51022-3 0  9999
2 47283  87.8940 135.1853 0001920  81.9971 278.1376 13.12442400169365
ONEWEB-0138             
1 47284U 20100AC  24173.42670773  .00000415  00000+0  11182-2 0  9995
2 47284  87.8940 135.1867 0002057  79.7941 280.3420 13.12442850169459
ONEWEB-0139             
1 47285U 20100AD  24173.39323195 -.00000169  00000+0 -49256-3 0  9997
2 47285  87.8942 135.1644 0002080  82.5247 277.6118 13.14017312169526
ONEWEB-0140             
1 47286U 20100AE  24173.42020875  .00000455  00000+0  12282-2 0  9995
2 47286  87.8939 135.1635 0002115  78.3841 281.7525 13.12445336169498
ONEWEB-0141             
1 47287U 20100AF  24173.38933065 -.00000370  00000+0 -10648-2 0  9997
2 47287  87.8942 135.1812 0002106  87.8331 272.3039 13.12470838169478
ONEWEB-0142             
1 47288U 20100AG  24173.43399814  .00000300  00000+0  79826-3 0  9997
2 47288  87.8940 135.1535 0001816  78.7987 281.3346 13.12442684169471
ONEWEB-0143             
1 47289U 20100AH  24173.46401614 -.00000439  00000+0 -12548-2 0  9995
2 47289  87.8942 135.1680 0002136  84.1450 275.9922 13.12444253169458
